start=new Date('2023-01-06T00:00:00.000Z').valueOf();
sats=[{"MEAN_MOTION":"15.49906183","APOAPSIS":"418.435","COUNTRY_CODE":"US","OBJECT_TYPE":"PAYLOAD","EPHEMERIS_TYPE":"0","PERIOD":"92.909","PERIAPSIS":"415.569","ECCENTRICITY":"0.00021090","RCS_SIZE":"LARGE","CLASSIFICATION_TYPE":"U","GP_ID":"222292702","BSTAR":"0.00088994000000","ELEMENT_SET_NO":"999","CENTER_NAME":"EARTH","REF_FRAME":"TEME","INCLINATION":"53.2129","TLE_LINE2":"2 54194  53.2129 159.5230 0002109  55.7950  25.8916 15.49906183  1306","TIME_SYSTEM":"UTC","ARG_OF_PERICENTER":"55.7950","FILE":"3732963","REV_AT_EPOCH":"130","OBJECT_ID":"2022-141AP","RA_OF_ASC_NODE":"159.5230","LAUNCH_DATE":"2022-10-28","SEMIMAJOR_AXIS":"6795.137","OBJECT_NAME":"STARLINK-5271","MEAN_ANOMALY":"25.8916","MEAN_ELEMENT_THEORY":"SGP4","EPOCH":"2023-01-05T20:00:01.000224","DECAY_DATE":null,"SITE":"AFWTR","TLE_LINE1":"1 54194U 22141AP  23005.83334491  .00050423  00000-0  88994-3 0  9993","MEAN_MOTION_DDOT":"0.0000000000000","NORAD_CAT_ID":"54194","MEAN_MOTION_DOT":"0.00050423"},{"INCLINATION":"53.2129","TLE_LINE2":"2 54195  53.2129 159.5303 0001540  42.4932  35.5790 15.49840464  1306","TIME_SYSTEM":"UTC","ARG_OF_PERICENTER":"42.4932","FILE":"3732963","REV_AT_EPOCH":"130","OBJECT_ID":"2022-141AQ","LAUNCH_DATE":"2022-10-28","RA_OF_ASC_NODE":"159.5303","SEMIMAJOR_AXIS":"6795.329","OBJECT_NAME":"STARLINK-5258","MEAN_ANOMALY":"35.5790","MEAN_ELEMENT_THEORY":"SGP4","EPOCH":"2023-01-05T20:00:01.000224","DECAY_DATE":null,"SITE":"AFWTR","TLE_LINE1":"1 54195U 22141AQ  23005.83334491 -.00023095  00000-0 -40077-3 0  9991","MEAN_MOTION_DDOT":"0.0000000000000","NORAD_CAT_ID":"54195","MEAN_MOTION_DOT":"-0.00023095","MEAN_MOTION":"15.49840464","APOAPSIS":"418.241","COUNTRY_CODE":"US","EPHEMERIS_TYPE":"0","OBJECT_TYPE":"PAYLOAD","PERIOD":"92.913","PERIAPSIS":"416.148","ECCENTRICITY":"0.00015400","RCS_SIZE":"LARGE","CLASSIFICATION_TYPE":"U","GP_ID":"222292930","ELEMENT_SET_NO":"999","BSTAR":"-0.00040077000000","CENTER_NAME":"EARTH","REF_FRAME":"TEME"},{"FILE":"3732963","ARG_OF_PERICENTER":"64.0182","TIME_SYSTEM":"UTC","OBJECT_ID":"2022-141AR","REV_AT_EPOCH":"130","TLE_LINE2":"2 54196  53.2126 159.5168 0002156  64.0182  20.1611 15.49875227  1301","INCLINATION":"53.2126","NORAD_CAT_ID":"54196","MEAN_MOTION_DOT":"0.00062806","SITE":"AFWTR","MEAN_MOTION_DDOT":"0.0000000000000","TLE_LINE1":"1 54196U 22141AR  23005.83334491  .00062806  00000-0  11060-2 0  9992","DECAY_DATE":null,"EPOCH":"2023-01-05T20:00:01.000224","MEAN_ELEMENT_THEORY":"SGP4","OBJECT_NAME":"STARLINK-5237","SEMIMAJOR_AXIS":"6795.228","LAUNCH_DATE":"2022-10-28","RA_OF_ASC_NODE":"159.5168","MEAN_ANOMALY":"20.1611","ECCENTRICITY":"0.00021560","PERIAPSIS":"415.628","PERIOD":"92.911","OBJECT_TYPE":"PAYLOAD","EPHEMERIS_TYPE":"0","APOAPSIS":"418.558","MEAN_MOTION":"15.49875227","COUNTRY_CODE":"US","ELEMENT_SET_NO":"999","BSTAR":"0.00110600000000","REF_FRAME":"TEME","CENTER_NAME":"EARTH","GP_ID":"222291304","RCS_SIZE":"LARGE","CLASSIFICATION_TYPE":"U"},{"TLE_LINE2":"2 54197  53.2134 159.5250 0001874  45.8410  34.4069 15.49863652  1304","INCLINATION":"53.2134","OBJECT_ID":"2022-141AS","REV_AT_EPOCH":"130","ARG_OF_PERICENTER":"45.8410","FILE":"3732963","TIME_SYSTEM":"UTC","MEAN_ANOMALY":"34.4069","OBJECT_NAME":"STARLINK-5234","LAUNCH_DATE":"2022-10-28","RA_OF_ASC_NODE":"159.5250","SEMIMAJOR_AXIS":"6795.262","DECAY_DATE":null,"MEAN_ELEMENT_THEORY":"SGP4","EPOCH":"2023-01-05T20:00:01.000224","MEAN_MOTION_DDOT":"0.0000000000000","TLE_LINE1":"1 54197U 22141AS  23005.83334491  .00062882  00000-0  11078-2 0  9996","SITE":"AFWTR","MEAN_MOTION_DOT":"0.00062882","NORAD_CAT_ID":"54197","COUNTRY_CODE":"US","APOAPSIS":"418.400","MEAN_MOTION":"15.49863652","OBJECT_TYPE":"PAYLOAD","EPHEMERIS_TYPE":"0","PERIAPSIS":"415.853","PERIOD":"92.911","ECCENTRICITY":"0.00018740","CLASSIFICATION_TYPE":"U","RCS_SIZE":"LARGE","GP_ID":"222291538","REF_FRAME":"TEME","CENTER_NAME":"EARTH","BSTAR":"0.00110780000000","ELEMENT_SET_NO":"999"},{"INCLINATION":"53.2128","TLE_LINE2":"2 54198  53.2128 159.5137 0001623  44.8481  40.7813 15.49949102  1303","TIME_SYSTEM":"UTC","ARG_OF_PERICENTER":"44.8481","FILE":"3732963","REV_AT_EPOCH":"130","OBJECT_ID":"2022-141AT","MEAN_ELEMENT_THEORY":"SGP4","EPOCH":"2023-01-05T20:00:01.000224","DECAY_DATE":null,"LAUNCH_DATE":"2022-10-28","SEMIMAJOR_AXIS":"6795.012","RA_OF_ASC_NODE":"159.5137","OBJECT_NAME":"STARLINK-5246","MEAN_ANOMALY":"40.7813","NORAD_CAT_ID":"54198","MEAN_MOTION_DOT":"-0.00056908","SITE":"AFWTR","TLE_LINE1":"1 54198U 22141AT  23005.83334491 -.00056908  00000-0 -99968-3 0  9996","MEAN_MOTION_DDOT":"0.0000000000000","OBJECT_TYPE":"PAYLOAD","EPHEMERIS_TYPE":"0","MEAN_MOTION":"15.49949102","APOAPSIS":"417.980","COUNTRY_CODE":"US","ECCENTRICITY":"0.00016230","PERIOD":"92.906","PERIAPSIS":"415.774","RCS_SIZE":"LARGE","CLASSIFICATION_TYPE":"U","ELEMENT_SET_NO":"999","BSTAR":"-0.00099968000000","CENTER_NAME":"EARTH","REF_FRAME":"TEME","GP_ID":"222292242"},{"CENTER_NAME":"EARTH","REF_FRAME":"TEME","BSTAR":"0.00022193000000","ELEMENT_SET_NO":"999","GP_ID":"222292470","CLASSIFICATION_TYPE":"U","RCS_SIZE":"LARGE","ECCENTRICITY":"0.00015330","PERIOD":"92.912","PERIAPSIS":"416.104","OBJECT_TYPE":"PAYLOAD","EPHEMERIS_TYPE":"0","COUNTRY_CODE":"US","MEAN_MOTION":"15.49857003","APOAPSIS":"418.188","MEAN_MOTION_DOT":"0.00012151","NORAD_CAT_ID":"54199","TLE_LINE1":"1 54199U 22141AU  23005.83334491  .00012151  00000-0  22193-3 0  9993","MEAN_MOTION_DDOT":"0.0000000000000","SITE":"AFWTR","MEAN_ELEMENT_THEORY":"SGP4","EPOCH":"2023-01-05T20:00:01.000224","DECAY_DATE":null,"MEAN_ANOMALY":"42.5088","SEMIMAJOR_AXIS":"6795.281","LAUNCH_DATE":"2022-10-28","RA_OF_ASC_NODE":"159.5198","OBJECT_NAME":"STARLINK-5244","REV_AT_EPOCH":"130","OBJECT_ID":"2022-141AU","TIME_SYSTEM":"UTC","FILE":"3732963","ARG_OF_PERICENTER":"40.6556","INCLINATION":"53.2131","TLE_LINE2":"2 54199  53.2131 159.5198 0001533  40.6556  42.5088 15.49857003  1304"},{"CENTER_NAME":"EARTH","REF_FRAME":"TEME","ELEMENT_SET_NO":"999","BSTAR":"0.00111070000000","GP_ID":"222291777","CLASSIFICATION_TYPE":"U","RCS_SIZE":"LARGE","ECCENTRICITY":"0.00016090","PERIOD":"92.910","PERIAPSIS":"415.968","OBJECT_TYPE":"PAYLOAD","EPHEMERIS_TYPE":"0","COUNTRY_CODE":"US","MEAN_MOTION":"15.49885944","APOAPSIS":"418.155","MEAN_MOTION_DOT":"0.00063099","NORAD_CAT_ID":"54200","TLE_LINE1":"1 54200U 22141AV  23005.83334491  .00063099  00000-0  11107-2 0  9995","MEAN_MOTION_DDOT":"0.0000000000000","SITE":"AFWTR","EPOCH":"2023-01-05T20:00:01.000224","MEAN_ELEMENT_THEORY":"SGP4","DECAY_DATE":null,"MEAN_ANOMALY":"56.9586","LAUNCH_DATE":"2022-10-28","RA_OF_ASC_NODE":"159.5039","SEMIMAJOR_AXIS":"6795.196","OBJECT_NAME":"STARLINK-5250","REV_AT_EPOCH":"130","OBJECT_ID":"2022-141AV","TIME_SYSTEM":"UTC","ARG_OF_PERICENTER":"32.3777","FILE":"3732963","INCLINATION":"53.2139","TLE_LINE2":"2 54200  53.2139 159.5039 0001609  32.3777  56.9586 15.49885944  1303"},{"NORAD_CAT_ID":"54201","MEAN_MOTION_DOT":"0.00063958","SITE":"AFWTR","TLE_LINE1":"1 54201U 22141AW  23005.83334491  .00063958  00000-0  11251-2 0  9990","MEAN_MOTION_DDOT":"0.0000000000000","MEAN_ELEMENT_THEORY":"SGP4","EPOCH":"2023-01-05T20:00:01.000224","DECAY_DATE":null,"RA_OF_ASC_NODE":"159.5041","LAUNCH_DATE":"2022-10-28","SEMIMAJOR_AXIS":"6795.162","OBJECT_NAME":"STARLINK-5199","MEAN_ANOMALY":"40.0808","TIME_SYSTEM":"UTC","ARG_OF_PERICENTER":"50.5172","FILE":"3732963","REV_AT_EPOCH":"130","OBJECT_ID":"2022-141AW","INCLINATION":"53.2142","TLE_LINE2":"2 54201  53.2142 159.5041 0002074  50.5172  40.0808 15.49897615  1308","BSTAR":"0.00112510000000","ELEMENT_SET_NO":"999","CENTER_NAME":"EARTH","REF_FRAME":"TEME","GP_ID":"222292010","RCS_SIZE":"LARGE","CLASSIFICATION_TYPE":"U","ECCENTRICITY":"0.00020740","PERIOD":"92.909","PERIAPSIS":"415.618","EPHEMERIS_TYPE":"0","OBJECT_TYPE":"PAYLOAD","MEAN_MOTION":"15.49897615","APOAPSIS":"418.437","COUNTRY_CODE":"US"},{"MEAN_MOTION_DDOT":"0.0000000000000","TLE_LINE1":"1 54202U 22141AX  23005.83334491  .00004508  00000-0  87239-4 0  9998","SITE":"AFWTR","MEAN_MOTION_DOT":"0.00004508","NORAD_CAT_ID":"54202","MEAN_ANOMALY":"38.2675","OBJECT_NAME":"STARLINK-5205","LAUNCH_DATE":"2022-10-28","SEMIMAJOR_AXIS":"6795.089","RA_OF_ASC_NODE":"159.5023","DECAY_DATE":null,"EPOCH":"2023-01-05T20:00:01.000224","MEAN_ELEMENT_THEORY":"SGP4","OBJECT_ID":"2022-141AX","REV_AT_EPOCH":"130","ARG_OF_PERICENTER":"53.6415","FILE":"3732963","TIME_SYSTEM":"UTC","TLE_LINE2":"2 54202  53.2140 159.5023 0002548  53.6415  38.2675 15.49922588  1306","INCLINATION":"53.2140","GP_ID":"222292703","REF_FRAME":"TEME","CENTER_NAME":"EARTH","ELEMENT_SET_NO":"999","BSTAR":"0.00008723900000","CLASSIFICATION_TYPE":"U","RCS_SIZE":"LARGE","PERIAPSIS":"415.223","PERIOD":"92.908","ECCENTRICITY":"0.00025480","COUNTRY_CODE":"US","APOAPSIS":"418.686","MEAN_MOTION":"15.49922588","OBJECT_TYPE":"PAYLOAD","EPHEMERIS_TYPE":"0"},{"INCLINATION":"53.2139","TLE_LINE2":"2 54203  53.2139 159.5133 0002044  70.1526  16.7080 15.49857548  1309","TIME_SYSTEM":"UTC","ARG_OF_PERICENTER":"70.1526","FILE":"3732963","REV_AT_EPOCH":"130","OBJECT_ID":"2022-141AY","RA_OF_ASC_NODE":"159.5133","LAUNCH_DATE":"2022-10-28","SEMIMAJOR_AXIS":"6795.279","OBJECT_NAME":"STARLINK-5247","MEAN_ANOMALY":"16.7080","EPOCH":"2023-01-05T20:00:01.000224","MEAN_ELEMENT_THEORY":"SGP4","DECAY_DATE":null,"SITE":"AFWTR","TLE_LINE1":"1 54203U 22141AY  23005.83334491  .00061700  00000-0  10875-2 0  9996","MEAN_MOTION_DDOT":"0.0000000000000","NORAD_CAT_ID":"54203","MEAN_MOTION_DOT":"0.00061700","MEAN_MOTION":"15.49857548","APOAPSIS":"418.533","COUNTRY_CODE":"US","EPHEMERIS_TYPE":"0","OBJECT_TYPE":"PAYLOAD","PERIOD":"92.912","PERIAPSIS":"415.755","ECCENTRICITY":"0.00020440","RCS_SIZE":"LARGE","CLASSIFICATION_TYPE":"U","GP_ID":"222292931","BSTAR":"0.00108750000000","ELEMENT_SET_NO":"999","CENTER_NAME":"EARTH","REF_FRAME":"TEME"}];
